[{"OBJECT_NAME":"STARLINK-3297","OBJECT_ID":"2021-125D","EPOCH":"2026-03-09T18:16:46.289568","MEAN_MOTION":15.08837403,"ECCENTRICITY":0.00014564,"INCLINATION":53.2175,"RA_OF_ASC_NODE":258.8095,"ARG_OF_PERICENTER":97.4511,"MEAN_ANOMALY":262.6647,"EPHEMERIS_TYPE":0,"CLASSIFICATION_TYPE":"U","NORAD_CAT_ID":50159,"ELEMENT_SET_NO":999,"REV_AT_EPOCH":23646,"BSTAR":5.074044e-6,"MEAN_MOTION_DOT":-2.07e-6,"MEAN_MOTION_DDOT":0},{"OBJECT_NAME":"OBJECT G","OBJECT_ID":"2025-292G","EPOCH":"2026-03-09T22:41:34.708704","MEAN_MOTION":15.05879657,"ECCENTRICITY":0.00150455,"INCLINATION":97.6425,"RA_OF_ASC_NODE":145.7524,"ARG_OF_PERICENTER":352.95,"MEAN_ANOMALY":7.1513,"EPHEMERIS_TYPE":0,"CLASSIFICATION_TYPE":"U","NORAD_CAT_ID":66999,"ELEMENT_SET_NO":999,"REV_AT_EPOCH":1351,"BSTAR":0.00047153864,"MEAN_MOTION_DOT":6.807e-5,"MEAN_MOTION_DDOT":0}]
